GPS BIIF-11             
1 41019U 15062A   26086.51063787 -.00000070  00000+0  00000+0 0  9994
2 41019  56.9083  33.9579 0111316 231.5995 127.3861  2.00566923 76195
ELEKTRO-L 2             
1 41105U 15074A   26087.25662619 -.00000132  00000+0  00000+0 0  9993
2 41105   6.4915  71.5035 0002854 245.3315 306.7306  1.00271696 37693
GSAT0209 (GALILEO 12)   
1 41174U 15079A   26087.09015773  .00000041  00000+0  00000+0 0  9997
2 41174  55.7756 103.4845 0005363 324.7749  35.2418  1.70474268 63395
GSAT0208 (GALILEO 11)   
1 41175U 15079B   26084.96405340  .00000035  00000+0  00000+0 0  9997
2 41175  55.7718 103.5397 0004709 325.4487  34.5679  1.70474138 63776
GPS BIIF-12             
1 41328U 16007A   26086.59699733  .00000040  00000+0  00000+0 0  9997
2 41328  55.4719  92.6926 0095870 246.5777 112.4456  2.00555566 74202
GSAT0211 (GALILEO 14)   
1 41549U 16030A   26086.84781407 -.00000015  00000+0  00000+0 0  9999
2 41549  55.1222 223.9297 0003027  18.1834 341.7749  1.70473902 61288
GSAT0210 (GALILEO 13)   
1 41550U 16030B   26086.51850330 -.00000012  00000+0  00000+0 0  9994
2 41550  55.1217 223.9368 0001813 210.8159 149.1228  1.70473922 61278
INSAT-3DR               
1 41752U 16054A   26087.55944009 -.00000096  00000+0  00000+0 0  9998
2 41752   0.1109  87.7047 0012757 195.0325 178.6099  1.00271690 35017
GSAT0207 (GALILEO 15)   
1 41859U 16069A   26086.79683287  .00000039  00000+0  00000+0 0  9991
2 41859  55.4460 103.3365 0005689 312.3228  47.6802  1.70474198 58015
GSAT0212 (GALILEO 16)   
1 41860U 16069B   26087.23694097  .00000041  00000+0  00000+0 0  9997
2 41860  55.4440 103.3194 0004270 336.1855  23.8469  1.70474392 58279
GSAT0213 (GALILEO 17)   
1 41861U 16069C   26085.84459114  .00000036  00000+0  00000+0 0  9996
2 41861  55.4449 103.3658 0005734 297.2228  62.7676  1.70474648 58110
GSAT0214 (GALILEO 18)   
1 41862U 16069D   26087.16383991  .00000040  00000+0  00000+0 0  9998
2 41862  55.4445 103.3220 0004756 301.5492  58.4564  1.70474482 58267
GOES 16                 
1 41866U 16071A   26087.52399328 -.00000110  00000+0  00000+0 0  9995
2 41866   0.1576  85.5113 0002192 232.8441 311.5165  1.00271523 34298
GSAT-17                 
1 42815U 17040B   26087.55337514 -.00000277  00000+0  00000+0 0  9993
2 42815   0.0506  74.2371 0004533 225.4287 178.9967  1.00270292 31983
GSAT0215 (GALILEO 19)   
1 43055U 17079A   26085.89412333 -.00000005  00000+0  00000+0 0  9999
2 43055  55.1006 223.7688 0000520 291.5499  68.3971  1.70474533 51585
GSAT0216 (GALILEO 20)   
1 43056U 17079B   26087.35847726 -.00000020  00000+0  00000+0 0  9998
2 43056  55.1004 223.7286 0001951 299.6924  60.2331  1.70474678 51625
GSAT0217 (GALILEO 21)   
1 43057U 17079C   26086.99266439 -.00000017  00000+0  00000+0 0  9990
2 43057  55.0995 223.7365 0001844 336.2846  23.6538  1.70474585 51601
