[{"OBJECT_NAME":"GPS BIIF-11","OBJECT_ID":"2015-062A","EPOCH":"2026-03-27T12:15:19.111968","MEAN_MOTION":2.00566923,"ECCENTRICITY":0.01113167,"INCLINATION":56.9083,"RA_OF_ASC_NODE":33.9579,"ARG_OF_PERICENTER":231.5995,"MEAN_ANOMALY":127.3861,"EPHEMERIS_TYPE":0,"CLASSIFICATION_TYPE":"U","NORAD_CAT_ID":41019,"ELEMENT_SET_NO":999,"REV_AT_EPOCH":7619,"BSTAR":0,"MEAN_MOTION_DOT":-7.0e-7,"MEAN_MOTION_DDOT":0},{"OBJECT_NAME":"ELEKTRO-L 2","OBJECT_ID":"2015-074A","EPOCH":"2026-03-28T06:09:32.502816","MEAN_MOTION":1.00271696,"ECCENTRICITY":0.0002854,"INCLINATION":6.4915,"RA_OF_ASC_NODE":71.5035,"ARG_OF_PERICENTER":245.3315,"MEAN_ANOMALY":306.7306,"EPHEMERIS_TYPE":0,"CLASSIFICATION_TYPE":"U","NORAD_CAT_ID":41105,"ELEMENT_SET_NO":999,"REV_AT_EPOCH":3769,"BSTAR":0,"MEAN_MOTION_DOT":-1.32e-6,"MEAN_MOTION_DDOT":0},{"OBJECT_NAME":"GSAT0209 (GALILEO 12)","OBJECT_ID":"2015-079A","EPOCH":"2026-03-28T02:09:49.627872","MEAN_MOTION":1.70474268,"ECCENTRICITY":0.00053639,"INCLINATION":55.7756,"RA_OF_ASC_NODE":103.4845,"ARG_OF_PERICENTER":324.7749,"MEAN_ANOMALY":35.2418,"EPHEMERIS_TYPE":0,"CLASSIFICATION_TYPE":"U","NORAD_CAT_ID":41174,"ELEMENT_SET_NO":999,"REV_AT_EPOCH":6339,"BSTAR":0,"MEAN_MOTION_DOT":4.1e-7,"MEAN_MOTION_DDOT":0},{"OBJECT_NAME":"GSAT0208 (GALILEO 11)","OBJECT_ID":"2015-079B","EPOCH":"2026-03-25T23:08:14.213760","MEAN_MOTION":1.70474138,"ECCENTRICITY":0.00047094,"INCLINATION":55.7718,"RA_OF_ASC_NODE":103.5397,"ARG_OF_PERICENTER":325.4487,"MEAN_ANOMALY":34.5679,"EPHEMERIS_TYPE":0,"CLASSIFICATION_TYPE":"U","NORAD_CAT_ID":41175,"ELEMENT_SET_NO":999,"REV_AT_EPOCH":6377,"BSTAR":0,"MEAN_MOTION_DOT":3.5e-7,"MEAN_MOTION_DDOT":0},{"OBJECT_NAME":"GPS BIIF-12","OBJECT_ID":"2016-007A","EPOCH":"2026-03-27T14:19:40.569312","MEAN_MOTION":2.00555566,"ECCENTRICITY":0.00958704,"INCLINATION":55.4719,"RA_OF_ASC_NODE":92.6926,"ARG_OF_PERICENTER":246.5777,"MEAN_ANOMALY":112.4456,"EPHEMERIS_TYPE":0,"CLASSIFICATION_TYPE":"U","NORAD_CAT_ID":41328,"ELEMENT_SET_NO":999,"REV_AT_EPOCH":7420,"BSTAR":0,"MEAN_MOTION_DOT":4.0e-7,"MEAN_MOTION_DDOT":0},{"OBJECT_NAME":"GSAT0211 (GALILEO 14)","OBJECT_ID":"2016-030A","EPOCH":"2026-03-27T20:20:51.135648","MEAN_MOTION":1.70473902,"ECCENTRICITY":0.00030274,"INCLINATION":55.1222,"RA_OF_ASC_NODE":223.9297,"ARG_OF_PERICENTER":18.1834,"MEAN_ANOMALY":341.7749,"EPHEMERIS_TYPE":0,"CLASSIFICATION_TYPE":"U","NORAD_CAT_ID":41549,"ELEMENT_SET_NO":999,"REV_AT_EPOCH":6128,"BSTAR":0,"MEAN_MOTION_DOT":-1.5e-7,"MEAN_MOTION_DDOT":0},{"OBJECT_NAME":"GSAT0210 (GALILEO 13)","OBJECT_ID":"2016-030B","EPOCH":"2026-03-27T12:26:38.685120","MEAN_MOTION":1.70473922,"ECCENTRICITY":0.00018137,"INCLINATION":55.1217,"RA_OF_ASC_NODE":223.9368,"ARG_OF_PERICENTER":210.8159,"MEAN_ANOMALY":149.1228,"EPHEMERIS_TYPE":0,"CLASSIFICATION_TYPE":"U","NORAD_CAT_ID":41550,"ELEMENT_SET_NO":999,"REV_AT_EPOCH":6127,"BSTAR":0,"MEAN_MOTION_DOT":-1.2e-7,"MEAN_MOTION_DDOT":0},{"OBJECT_NAME":"INSAT-3DR","OBJECT_ID":"2016-054A","EPOCH":"2026-03-28T13:25:35.623776","MEAN_MOTION":1.0027169,"ECCENTRICITY":0.00127579,"INCLINATION":0.1109,"RA_OF_ASC_NODE":87.7047,"ARG_OF_PERICENTER":195.0325,"MEAN_ANOMALY":178.6099,"EPHEMERIS_TYPE":0,"CLASSIFICATION_TYPE":"U","NORAD_CAT_ID":41752,"ELEMENT_SET_NO":999,"REV_AT_EPOCH":3501,"BSTAR":0,"MEAN_MOTION_DOT":-9.6e-7,"MEAN_MOTION_DDOT":0},{"OBJECT_NAME":"GSAT0207 (GALILEO 15)","OBJECT_ID":"2016-069A","EPOCH":"2026-03-27T19:07:26.359968","MEAN_MOTION":1.70474198,"ECCENTRICITY":0.0005689,"INCLINATION":55.446,"RA_OF_ASC_NODE":103.3365,"ARG_OF_PERICENTER":312.3228,"MEAN_ANOMALY":47.6802,"EPHEMERIS_TYPE":0,"CLASSIFICATION_TYPE":"U","NORAD_CAT_ID":41859,"ELEMENT_SET_NO":999,"REV_AT_EPOCH":5801,"BSTAR":0,"MEAN_MOTION_DOT":3.9e-7,"MEAN_MOTION_DDOT":0},{"OBJECT_NAME":"GSAT0212 (GALILEO 16)","OBJECT_ID":"2016-069B","EPOCH":"2026-03-28T05:41:11.699808","MEAN_MOTION":1.70474392,"ECCENTRICITY":0.00042703,"INCLINATION":55.444,"RA_OF_ASC_NODE":103.3194,"ARG_OF_PERICENTER":336.1855,"MEAN_ANOMALY":23.8469,"EPHEMERIS_TYPE":0,"CLASSIFICATION_TYPE":"U","NORAD_CAT_ID":41860,"ELEMENT_SET_NO":999,"REV_AT_EPOCH":5827,"BSTAR":0,"MEAN_MOTION_DOT":4.1e-7,"MEAN_MOTION_DDOT":0},{"OBJECT_NAME":"GSAT0213 (GALILEO 17)","OBJECT_ID":"2016-069C","EPOCH":"2026-03-26T20:16:12.674496","MEAN_MOTION":1.70474648,"ECCENTRICITY":0.0005734,"INCLINATION":55.4449,"RA_OF_ASC_NODE":103.3658,"ARG_OF_PERICENTER":297.2228,"MEAN_ANOMALY":62.7676,"EPHEMERIS_TYPE":0,"CLASSIFICATION_TYPE":"U","NORAD_CAT_ID":41861,"ELEMENT_SET_NO":999,"REV_AT_EPOCH":5811,"BSTAR":0,"MEAN_MOTION_DOT":3.6e-7,"MEAN_MOTION_DDOT":0},{"OBJECT_NAME":"GSAT0214 (GALILEO 18)","OBJECT_ID":"2016-069D","EPOCH":"2026-03-28T03:55:55.768224","MEAN_MOTION":1.70474482,"ECCENTRICITY":0.0004756,"INCLINATION":55.4445,"RA_OF_ASC_NODE":103.322,"ARG_OF_PERICENTER":301.5492,"MEAN_ANOMALY":58.4564,"EPHEMERIS_TYPE":0,"CLASSIFICATION_TYPE":"U","NORAD_CAT_ID":41862,"ELEMENT_SET_NO":999,"REV_AT_EPOCH":5826,"BSTAR":0,"MEAN_MOTION_DOT":4.0e-7,"MEAN_MOTION_DDOT":0},{"OBJECT_NAME":"GOES 16","OBJECT_ID":"2016-071A","EPOCH":"2026-03-28T12:34:33.019392","MEAN_MOTION":1.00271523,"ECCENTRICITY":0.00021927,"INCLINATION":0.1576,"RA_OF_ASC_NODE":85.5113,"ARG_OF_PERICENTER":232.8441,"MEAN_ANOMALY":311.5165,"EPHEMERIS_TYPE":0,"CLASSIFICATION_TYPE":"U","NORAD_CAT_ID":41866,"ELEMENT_SET_NO":999,"REV_AT_EPOCH":3429,"BSTAR":0,"MEAN_MOTION_DOT":-1.1e-6,"MEAN_MOTION_DDOT":0},{"OBJECT_NAME":"GSAT-17","OBJECT_ID":"2017-040B","EPOCH":"2026-03-28T13:16:51.612096","MEAN_MOTION":1.00270292,"ECCENTRICITY":0.00045339,"INCLINATION":0.0506,"RA_OF_ASC_NODE":74.2371,"ARG_OF_PERICENTER":225.4287,"MEAN_ANOMALY":178.9967,"EPHEMERIS_TYPE":0,"CLASSIFICATION_TYPE":"U","NORAD_CAT_ID":42815,"ELEMENT_SET_NO":999,"REV_AT_EPOCH":3198,"BSTAR":0,"MEAN_MOTION_DOT":-2.77e-6,"MEAN_MOTION_DDOT":0},{"OBJECT_NAME":"GSAT0215 (GALILEO 19)","OBJECT_ID":"2017-079A","EPOCH":"2026-03-26T21:27:32.255712","MEAN_MOTION":1.70474533,"ECCENTRICITY":5.2e-5,"INCLINATION":55.1006,"RA_OF_ASC_NODE":223.7688,"ARG_OF_PERICENTER":291.5499,"MEAN_ANOMALY":68.3971,"EPHEMERIS_TYPE":0,"CLASSIFICATION_TYPE":"U","NORAD_CAT_ID":43055,"ELEMENT_SET_NO":999,"REV_AT_EPOCH":5158,"BSTAR":0,"MEAN_MOTION_DOT":-5.0e-8,"MEAN_MOTION_DDOT":0},{"OBJECT_NAME":"GSAT0216 (GALILEO 20)","OBJECT_ID":"2017-079B","EPOCH":"2026-03-28T08:36:12.435264","MEAN_MOTION":1.70474678,"ECCENTRICITY":0.0001951,"INCLINATION":55.1004,"RA_OF_ASC_NODE":223.7286,"ARG_OF_PERICENTER":299.6924,"MEAN_ANOMALY":60.2331,"EPHEMERIS_TYPE":0,"CLASSIFICATION_TYPE":"U","NORAD_CAT_ID":43056,"ELEMENT_SET_NO":999,"REV_AT_EPOCH":5162,"BSTAR":0,"MEAN_MOTION_DOT":-2.0e-7,"MEAN_MOTION_DDOT":0},{"OBJECT_NAME":"GSAT0217 (GALILEO 21)","OBJECT_ID":"2017-079C","EPOCH":"2026-03-27T23:49:26.203296","MEAN_MOTION":1.70474585,"ECCENTRICITY":0.0001844,"INCLINATION":55.0995,"RA_OF_ASC_NODE":223.7365,"ARG_OF_PERICENTER":336.2846,"MEAN_ANOMALY":23.6538,"EPHEMERIS_TYPE":0,"CLASSIFICATION_TYPE":"U","NORAD_CAT_ID":43057,"ELEMENT_SET_NO":999,"REV_AT_EPOCH":5160,"BSTAR":0,"MEAN_MOTION_DOT":-1.7e-7,"MEAN_MOTION_DDOT":0}]
